NORAD_CAT_ID,OBJECT_NAME,OBJECT_TYPE,EPOCH,MEAN_MOTION,ECCENTRICITY,INCLINATION,RA_OF_ASC_NODE,ARG_OF_PERICENTER,MEAN_ANOMALY,BSTAR,MEAN_MOTION_DOT,MEAN_MOTION_DDOT,TLE_LINE0,TLE_LINE1,TLE_LINE2,SEMIMAJOR_AXIS,PERIOD,APOGEE,PERIGEE,DECAYED
52604.0,STARLINK-4013,PAYLOAD,2023-09-29 23:57:24,15.08847245,0.0001493,53.2165,322.0796,98.1864,261.9298,0.00026014,3.855e-05,0.0,0 STARLINK-4013,1 52604U 22052G   23272.99820143  .00003855  00000-0  26014-3 0  9997,2 52604  53.2165 322.0796 0001493  98.1864 261.9298 15.08847245 76243,6917.858,95.437,540.756,538.69,0.0
52604.0,STARLINK-4013,PAYLOAD,2023-09-30 09:29:43,15.08854135,0.0001525,53.2162,320.2952,91.5818,268.5349,0.00032926,4.958e-05,0.0,0 STARLINK-4013,1 52604U 22052G   23273.39563752  .00004958  00000-0  32926-3 0  9996,2 52604  53.2162 320.2952 0001525  91.5818 268.5349 15.08854135 76679,6917.837,95.437,540.757,538.647,0.0
52604.0,STARLINK-4013,PAYLOAD,2023-09-30 20:37:25,15.08847452,0.0001831,53.2162,318.2137,91.1635,268.9567,0.00014898,2.084e-05,0.0,0 STARLINK-4013,1 52604U 22052G   23273.85931916  .00002084  00000-0  14898-3 0  9994,2 52604  53.2162 318.2137 0001831  91.1635 268.9567 15.08847452 76742,6917.858,95.437,540.989,538.456,0.0
52604.0,STARLINK-4013,PAYLOAD,2023-10-01 09:20:30,15.08847363,0.0001653,53.2156,315.8338,100.1747,259.9432,7.9702e-05,9.81e-06,0.0,0 STARLINK-4013,1 52604U 22052G   23274.38923622  .00000981  00000-0  79702-4 0  9998,2 52604  53.2156 315.8338 0001653 100.1747 259.9432 15.08847363 76458,6917.858,95.437,540.866,538.579,0.0
52604.0,STARLINK-4013,PAYLOAD,2023-10-01 20:28:12,15.08838704,0.0001584,53.2155,313.7516,95.5209,264.5964,-1.2963e-05,-4.94e-06,0.0,0 STARLINK-4013,1 52604U 22052G   23274.85291963 -.00000494  00000-0 -12963-4 0  9993,2 52604  53.2155 313.7516 0001584  95.5209 264.5964 15.08838704 76524,6917.884,95.438,540.845,538.654,0.0
52604.0,STARLINK-4013,PAYLOAD,2023-10-02 02:49:45,15.08834045,0.0001833,53.2155,312.5623,100.7765,259.3433,-3.224e-05,-8.01e-06,0.0,0 STARLINK-4013,1 52604U 22052G   23275.11788300 -.00000801  00000-0 -32240-4 0  9991,2 52604  53.2155 312.5623 0001833 100.7765 259.3433 15.08834045 76935,6917.899,95.438,541.032,538.496,0.0
52604.0,STARLINK-4013,PAYLOAD,2023-10-02 13:57:27,15.08833168,0.0001647,53.2169,310.4815,87.1204,272.9976,0.00017836,2.551e-05,0.0,0 STARLINK-4013,1 52604U 22052G   23275.58156642  .00002551  00000-0  17836-3 0  9995,2 52604  53.2169 310.4815 0001647  87.1204 272.9976 15.08833168 76634,6917.901,95.438,540.906,538.627,0.0
52604.0,STARLINK-4013,PAYLOAD,2023-10-03 10:37:28,15.0886087,0.0001722,53.2163,306.6162,85.8006,274.3183,0.0010396,0.00016305,0.0,0 STARLINK-4013,1 52604U 22052G   23276.44268581  .00016305  00000-0  10396-2 0  9992,2 52604  53.2163 306.6162 0001722  85.8006 274.3183 15.08860870 77131,6917.817,95.436,540.873,538.49,0.0
52604.0,STARLINK-4013,PAYLOAD,2023-10-04 02:31:19,15.08851378,0.0001883,53.2188,303.6445,90.1485,269.9723,0.00024557,3.623e-05,0.0,0 STARLINK-4013,1 52604U 22052G   23277.10508627  .00003623  00000-0  24557-3 0  9998,2 52604  53.2188 303.6445 0001883  90.1485 269.9723 15.08851378 77231,6917.846,95.437,541.013,538.408,0.0
52604.0,STARLINK-4013,PAYLOAD,2023-10-04 08:52:51,15.08852702,0.000147,53.2161,302.4525,92.8735,267.2425,0.00056971,8.794e-05,0.0,0 STARLINK-4013,1 52604U 22052G   23277.37004508  .00008794  00000-0  56971-3 0  9995,2 52604  53.2161 302.4525 0001470  92.8735 267.2425 15.08852702 76902,6917.842,95.437,540.723,538.69,0.0
52604.0,STARLINK-4013,PAYLOAD,2023-10-05 02:22:06,15.08849184,0.0001689,53.2161,299.1813,94.1707,265.9478,0.0013046,0.00020541,0.0,0 STARLINK-4013,1 52604U 22052G   23278.09868859  .00020541  00000-0  13046-2 0  9991,2 52604  53.2161 299.1813 0001689  94.1707 265.9478 15.08849184 77386,6917.852,95.437,540.886,538.549,0.0
52604.0,STARLINK-4013,PAYLOAD,2023-10-05 08:43:39,15.08840593,0.000174,53.2162,297.9927,94.9804,265.1387,0.0004423,6.758e-05,0.0,0 STARLINK-4013,1 52604U 22052G   23278.36364851  .00006758  00000-0  44230-3 0  9998,2 52604  53.2162 297.9927 0001740  94.9804 265.1387 15.08840593 77424,6917.879,95.438,540.947,538.54,0.0
52604.0,STARLINK-4013,PAYLOAD,2023-10-05 18:15:58,15.08839163,0.0001684,53.2159,296.2084,93.2356,266.8829,0.00024931,3.682e-05,0.0,0 STARLINK-4013,1 52604U 22052G   23278.76108913  .00003682  00000-0  24931-3 0  9996,2 52604  53.2159 296.2084 0001684  93.2356 266.8829 15.08839163 77113,6917.883,95.438,540.913,538.583,0.0
52604.0,STARLINK-4013,PAYLOAD,2023-10-06 00:37:30,15.08840687,0.0001638,53.2162,295.0189,93.7942,266.3237,0.00013327,1.834e-05,0.0,0 STARLINK-4013,1 52604U 22052G   23279.02604913  .00001834  00000-0  13327-3 0  9991,2 52604  53.2162 295.0189 0001638  93.7942 266.3237 15.08840687 77521,6917.878,95.438,540.876,538.61,0.0
52604.0,STARLINK-4013,PAYLOAD,2023-10-06 10:09:49,15.08846403,0.0001654,53.2163,293.2346,90.1948,269.9233,0.00020841,3.031e-05,0.0,0 STARLINK-4013,1 52604U 22052G   23279.42348745  .00003031  00000-0  20841-3 0  9993,2 52604  53.2163 293.2346 0001654  90.1948 269.9233 15.08846403 77215,6917.861,95.437,540.87,538.582,0.0
52604.0,STARLINK-4013,PAYLOAD,2023-10-07 02:03:40,15.08843465,0.0001737,53.2161,290.2599,104.3249,255.7936,0.00018481,2.655e-05,0.0,0 STARLINK-4013,1 52604U 22052G   23280.08588930  .00002655  00000-0  18481-3 0  9997,2 52604  53.2161 290.2599 0001737 104.3249 255.7936 15.08843465 77683,6917.87,95.437,540.936,538.533,0.0
52604.0,STARLINK-4013,PAYLOAD,2023-10-07 08:25:13,15.08846967,0.0001605,53.2164,289.0707,100.3167,259.8006,0.00024954,3.686e-05,0.0,0 STARLINK-4013,1 52604U 22052G   23280.35084803  .00003686  00000-0  24954-3 0  9994,2 52604  53.2164 289.0707 0001605 100.3167 259.8006 15.08846967 77359,6917.859,95.437,540.834,538.614,0.0
52604.0,STARLINK-4013,PAYLOAD,2023-10-07 17:57:32,15.08839935,0.0001711,53.2166,287.2866,90.7534,269.3655,7.6912e-05,9.36e-06,0.0,0 STARLINK-4013,1 52604U 22052G   23280.74829191  .00000936  00000-0  76912-4 0  9991,2 52604  53.2166 287.2866 0001711  90.7534 269.3655 15.08839935 77785,6917.881,95.438,540.929,538.562,0.0
52604.0,STARLINK-4013,PAYLOAD,2023-10-08 00:19:05,15.0883413,0.0001478,53.2169,286.0975,91.7389,268.3773,9.4784e-05,1.221e-05,0.0,0 STARLINK-4013,1 52604U 22052G   23281.01325638  .00001221  00000-0  94784-4 0  9994,2 52604  53.2169 286.0975 0001478  91.7389 268.3773 15.08834130 77822,6917.898,95.438,540.786,538.741,0.0
52604.0,STARLINK-4013,PAYLOAD,2023-10-08 06:40:37,15.08843273,0.000162,53.2165,284.9082,93.9445,266.1733,0.00016668,2.366e-05,0.0,0 STARLINK-4013,1 52604U 22052G   23281.27821226  .00002366  00000-0  16668-3 0  9991,2 52604  53.2165 284.9082 0001620  93.9445 266.1733 15.08843273 77864,6917.87,95.437,540.856,538.615,0.0
52604.0,STARLINK-4013,PAYLOAD,2023-10-08 17:48:19,15.08843432,0.000171,53.2168,282.8259,93.2486,266.8702,9.4944e-05,1.223e-05,0.0,0 STARLINK-4013,1 52604U 22052G   23281.74189253  .00001223  00000-0  94944-4 0  9995,2 52604  53.2168 282.8259 0001710  93.2486 266.8702 15.08843432 77565,6917.87,95.437,540.918,538.552,0.0
52604.0,STARLINK-4013,PAYLOAD,2023-10-09 09:42:10,15.08853149,0.0001765,53.2161,279.851,105.3576,254.7611,0.00033848,5.105e-05,0.0,0 STARLINK-4013,1 52604U 22052G   23282.40428821  .00005105  00000-0  33848-3 0  9994,2 52604  53.2161 279.8510 0001765 105.3576 254.7611 15.08853149 77661,6917.84,95.437,540.926,538.484,0.0
52604.0,STARLINK-4013,PAYLOAD,2023-10-10 03:11:25,15.08843918,0.0001526,53.2167,276.5807,94.2708,265.8459,0.00021477,3.132e-05,0.0,0 STARLINK-4013,1 52604U 22052G   23283.13293322  .00003132  00000-0  21477-3 0  9994,2 52604  53.2167 276.5807 0001526  94.2708 265.8459 15.08843918 78148,6917.868,95.437,540.789,538.678,0.0
52604.0,STARLINK-4013,PAYLOAD,2023-10-10 09:32:57,15.08849057,0.0001576,53.2154,275.3914,89.0992,271.0181,0.00025342,3.748e-05,0.0,0 STARLINK-4013,1 52604U 22052G   23283.39789064  .00003748  00000-0  25342-3 0  9993,2 52604  53.2154 275.3914 0001576  89.0992 271.0181 15.08849057 77816,6917.853,95.437,540.808,538.627,0.0
52604.0,STARLINK-4013,PAYLOAD,2023-10-11 03:02:12,15.08837533,0.0001656,53.2152,272.1203,97.5056,262.6124,0.00011288,1.509e-05,0.0,0 STARLINK-4013,1 52604U 22052G   23284.12653601  .00001509  00000-0  11288-3 0  9999,2 52604  53.2152 272.1203 0001656  97.5056 262.6124 15.08837533 78296,6917.888,95.438,540.899,538.607,0.0
52604.0,STARLINK-4013,PAYLOAD,2023-10-11 07:48:22,15.0884528,0.0001599,53.2156,271.2293,92.5244,267.5931,0.00086987,0.00013585,0.0,0 STARLINK-4013,1 52604U 22052G   23284.32525674  .00013585  00000-0  86987-3 0  9994,2 52604  53.2156 271.2293 0001599  92.5244 267.5931 15.08845280 77959,6917.864,95.437,540.835,538.623,0.0
52604.0,STARLINK-4013,PAYLOAD,2023-10-12 04:28:23,15.08834469,0.0001638,53.217,267.3625,93.2503,266.8677,0.0002177,3.178e-05,0.0,0 STARLINK-4013,1 52604U 22052G   23285.18638109  .00003178  00000-0  21770-3 0  9993,2 52604  53.2170 267.3625 0001638  93.2503 266.8677 15.08834469 78452,6917.897,95.438,540.895,538.629,0.0
52604.0,STARLINK-4013,PAYLOAD,2023-10-12 07:39:09,15.08842408,0.0001619,53.2179,266.7702,95.5301,264.5876,0.00026436,3.922e-05,0.0,0 STARLINK-4013,1 52604U 22052G   23285.31886025  .00003922  00000-0  26436-3 0  9991,2 52604  53.2179 266.7702 0001619  95.5301 264.5876 15.08842408 78100,6917.873,95.437,540.858,538.618,0.0
52604.0,STARLINK-4013,PAYLOAD,2023-10-12 15:36:05,15.08842545,0.0001596,53.2171,265.2831,96.3743,263.7431,0.00026929,4.001e-05,0.0,0 STARLINK-4013,1 52604U 22052G   23285.65006061  .00004001  00000-0  26929-3 0  9998,2 52604  53.2171 265.2831 0001596  96.3743 263.7431 15.08842545 78157,6917.873,95.437,540.842,538.634,0.0
52604.0,STARLINK-4013,PAYLOAD,2023-10-13 07:29:56,15.0884476,0.0001671,53.2173,262.3112,103.1923,256.9255,0.00020524,2.98e-05,0.0,0 STARLINK-4013,1 52604U 22052G   23286.31245987  .00002980  00000-0  20524-3 0  9993,2 52604  53.2173 262.3112 0001671 103.1923 256.9255 15.08844760 78621,6917.866,95.437,540.887,538.575,0.0
